{"type": "FeatureCollection", "features": [ {"type": "Feature", "properties": {"norad_id": 30208, "name": "FENGYUN 1C DEB", "group": "fengyun-1c-debris", "lat": -49.35659863235132, "lon": -0.645314862435863, "alt_km": 803.2880138349756, "timestamp": "2025-12-14T07:33:19.752178+00:00", "meta": {"OBJECT_NAME": "FENGYUN 1C DEB", "OBJECT_ID": "1999-025VR", "EPOCH": "2025-12-13T13:49:23.396736", "MEAN_MOTION": 14.23528652, "ECCENTRICITY": 0.00329435, "INCLINATION": 98.5619, "RA_OF_ASC_NODE": 348.528, "ARG_OF_PERICENTER": 267.7936, "MEAN_ANOMALY": 217.6858, "EPHEMERIS_TYPE": 0, "CLASSIFICATION_TYPE": "U", "NORAD_CAT_ID": 30208, "ELEMENT_SET_NO": 999, "REV_AT_EPOCH": 97849, "BSTAR": 0.00068381949, "MEAN_MOTION_DOT": 1.522e-05, "MEAN_MOTION_DDOT": 0}, "tle": {"line1": "1 30208U 99025VR  25347.57596524  .00001522  00000+0  68382-3 0  9991", "line2": "2 30208  98.5619 348.5280 0032943 267.7936 217.6858 14.23528652978496"}}, "geometry": {"type": "Point", "coordinates": [-0.645314862435863, -49.35659863235132]}}, {"type": "Feature", "properties": {"norad_id": 30209, "name": "FENGYUN 1C DEB", "group": "fengyun-1c-debris", "lat": -51.36436177642447, "lon": 154.0392694713008, "alt_km": 828.4363618345878, "timestamp": "2025-12-14T07:33:19.752188+00:00", "meta": {"OBJECT_NAME": "FENGYUN 1C DEB", "OBJECT_ID": "1999-025VS", "EPOCH": "2025-12-12T21:01:36.158016", "MEAN_MOTION": 14.12903237, "ECCENTRICITY": 0.00386277, "INCLINATION": 98.7142, "RA_OF_ASC_NODE": 343.7018, "ARG_OF_PERICENTER": 238.5068, "MEAN_ANOMALY": 239.8573, "EPHEMERIS_TYPE": 0, "CLASSIFICATION_TYPE": "U", "NORAD_CAT_ID": 30209, "ELEMENT_SET_NO": 999, "REV_AT_EPOCH": 97208, "BSTAR": 0.00061974364, "MEAN_MOTION_DOT": 1.119e-05, "MEAN_MOTION_DDOT": 0}, "tle": {"line1": "1 30209U 99025VS  25346.87611294  .00001119  00000+0  61974-3 0  9998", "line2": "2 30209  98.7142 343.7018 0038627 238.5068 239.8573 14.12903237972086"}}, "geometry": {"type": "Point", "coordinates": [154.0392694713008, -51.36436177642447]}}, {"type": "Feature", "properties": {"norad_id": 30210, "name": "FENGYUN 1C DEB", "group": "fengyun-1c-debris", "lat": -33.11091676742369, "lon": -147.97010016689362, "alt_km": 864.994557417147, "timestamp": "2025-12-14T07:33:19.752199+00:00", "meta": {"OBJECT_NAME": "FENGYUN 1C DEB", "OBJECT_ID": "1999-025VT", "EPOCH": "2025-12-13T15:46:25.847040", "MEAN_MOTION": 14.08270214, "ECCENTRICITY": 0.00569156, "INCLINATION": 99.1907, "RA_OF_ASC_NODE": 37.4213, "ARG_OF_PERICENTER": 133.8774, "MEAN_ANOMALY": 347.0805, "EPHEMERIS_TYPE": 0, "CLASSIFICATION_TYPE": "U", "NORAD_CAT_ID": 30210, "ELEMENT_SET_NO": 999, "REV_AT_EPOCH": 96770, "BSTAR": 0.00087341337, "MEAN_MOTION_DOT": 1.469e-05, "MEAN_MOTION_DDOT": 0}, "tle": {"line1": "1 30210U 99025VT  25347.65724360  .00001469  00000+0  87341-3 0  9990", "line2": "2 30210  99.1907  37.4213 0056915 133.8774 347.0805 14.08270214967707"}}, "geometry": {"type": "Point", "coordinates": [-147.97010016689362, -33.11091676742369]}}, {"type": "Feature", "properties": {"norad_id": 30212, "name": "FENGYUN 1C DEB", "group": "fengyun-1c-debris", "lat": 38.41775396243719, "lon": -153.8554739377188, "alt_km": 969.5441726830404, "timestamp": "2025-12-14T07:33:19.752210+00:00", "meta": {"OBJECT_NAME": "FENGYUN 1C DEB", "OBJECT_ID": "1999-025VV", "EPOCH": "2025-12-13T09:01:17.074848", "MEAN_MOTION": 13.97057033, "ECCENTRICITY": 0.0096947, "INCLINATION": 99.4573, "RA_OF_ASC_NODE": 212.7755, "ARG_OF_PERICENTER": 235.5876, "MEAN_ANOMALY": 123.6091, "EPHEMERIS_TYPE": 0, "CLASSIFICATION_TYPE": "U", "NORAD_CAT_ID": 30212, "ELEMENT_SET_NO": 999, "REV_AT_EPOCH": 96234, "BSTAR": 0.00034094142, "MEAN_MOTION_DOT": 4.47e-06, "MEAN_MOTION_DDOT": 0}, "tle": {"line1": "1 30212U 99025VV  25347.37589207  .00000447  00000+0  34094-3 0  9992", "line2": "2 30212  99.4573 212.7755 0096947 235.5876 123.6091 13.97057033962341"}}, "geometry": {"type": "Point", "coordinates": [-153.8554739377188, 38.41775396243719]}}, {"type": "Feature", "properties": {"norad_id": 30213, "name": "FENGYUN 1C DEB", "group": "fengyun-1c-debris", "lat": -11.009581956653061, "lon": -117.0106338439394, "alt_km": 823.4053130534676, "timestamp": "2025-12-14T07:33:19.752221+00:00", "meta": {"OBJECT_NAME": "FENGYUN 1C DEB", "OBJECT_ID": "1999-025VW", "EPOCH": "2025-12-13T03:34:06.072960", "MEAN_MOTION": 14.11580467, "ECCENTRICITY": 0.00717241, "INCLINATION": 99.1224, "RA_OF_ASC_NODE": 63.5957, "ARG_OF_PERICENTER": 242.5792, "MEAN_ANOMALY": 146.4027, "EPHEMERIS_TYPE": 0, "CLASSIFICATION_TYPE": "U", "NORAD_CAT_ID": 30213, "ELEMENT_SET_NO": 999, "REV_AT_EPOCH": 96521, "BSTAR": 0.0025025403, "MEAN_MOTION_DOT": 4.612e-05, "MEAN_MOTION_DDOT": 0}, "tle": {"line1": "1 30213U 99025VW  25347.14868140  .00004612  00000+0  25025-2 0  9995", "line2": "2 30213  99.1224  63.5957 0071724 242.5792 146.4027 14.11580467965219"}}, "geometry": {"type": "Point", "coordinates": [-117.0106338439394, -11.009581956653061]}}, {"type": "Feature", "properties": {"norad_id": 30214, "name": "FENGYUN 1C DEB", "group": "fengyun-1c-debris", "lat": 61.90530272531102, "lon": -101.81259652200085, "alt_km": 779.0486344488272, "timestamp": "2025-12-14T07:33:19.752231+00:00", "meta": {"OBJECT_NAME": "FENGYUN 1C DEB", "OBJECT_ID": "1999-025VX", "EPOCH": "2025-12-13T16:36:56.986272", "MEAN_MOTION": 14.30934578, "ECCENTRICITY": 0.00207897, "INCLINATION": 98.7242, "RA_OF_ASC_NODE": 60.8459, "ARG_OF_PERICENTER": 41.9709, "MEAN_ANOMALY": 109.7248, "EPHEMERIS_TYPE": 0, "CLASSIFICATION_TYPE": "U", "NORAD_CAT_ID": 30214, "ELEMENT_SET_NO": 999, "REV_AT_EPOCH": 97580, "BSTAR": 0.0020841001, "MEAN_MOTION_DOT": 5.448e-05, "MEAN_MOTION_DDOT": 0}, "tle": {"line1": "1 30214U 99025VX  25347.69232623  .00005448  00000+0  20841-2 0  9996", "line2": "2 30214  98.7242  60.8459 0020789  41.9709 109.7248 14.30934578975806"}}, "geometry": {"type": "Point", "coordinates": [-101.81259652200085, 61.90530272531102]}}, {"type": "Feature", "properties": {"norad_id": 30217, "name": "FENGYUN 1C DEB", "group": "fengyun-1c-debris", "lat": -53.39154230242809, "lon": 140.50701424763858, "alt_km": 891.6446604186167, "timestamp": "2025-12-14T07:33:19.752241+00:00", "meta": {"OBJECT_NAME": "FENGYUN 1C DEB", "OBJECT_ID": "1999-025WA", "EPOCH": "2025-12-13T10:14:52.285920", "MEAN_MOTION": 14.24835768, "ECCENTRICITY": 0.01406961, "INCLINATION": 98.4312, "RA_OF_ASC_NODE": 331.1705, "ARG_OF_PERICENTER": 97.8304, "MEAN_ANOMALY": 263.8874, "EPHEMERIS_TYPE": 0, "CLASSIFICATION_TYPE": "U", "NORAD_CAT_ID": 30217, "ELEMENT_SET_NO": 999, "REV_AT_EPOCH": 98083, "BSTAR": 0.00037001628, "MEAN_MOTION_DOT": 9.16e-06, "MEAN_MOTION_DDOT": 0}, "tle": {"line1": "1 30217U 99025WA  25347.42699405  .00000916  00000+0  37002-3 0  9998", "line2": "2 30217  98.4312 331.1705 0140696  97.8304 263.8874 14.24835768980833"}}, "geometry": {"type": "Point", "coordinates": [140.50701424763858, -53.39154230242809]}}, {"type": "Feature", "properties": {"norad_id": 30218, "name": "FENGYUN 1C DEB", "group": "fengyun-1c-debris", "lat": 58.01361107352801, "lon": -87.59667854234644, "alt_km": 821.4447957210023, "timestamp": "2025-12-14T07:33:19.752251+00:00", "meta": {"OBJECT_NAME": "FENGYUN 1C DEB", "OBJECT_ID": "1999-025WB", "EPOCH": "2025-12-11T17:31:14.492640", "MEAN_MOTION": 14.28787588, "ECCENTRICITY": 0.00706868, "INCLINATION": 98.9843, "RA_OF_ASC_NODE": 75.0681, "ARG_OF_PERICENTER": 256.9516, "MEAN_ANOMALY": 256.5111, "EPHEMERIS_TYPE": 0, "CLASSIFICATION_TYPE": "U", "NORAD_CAT_ID": 30218, "ELEMENT_SET_NO": 999, "REV_AT_EPOCH": 97094, "BSTAR": 0.0040687728, "MEAN_MOTION_DOT": 0.00010497, "MEAN_MOTION_DDOT": 0}, "tle": {"line1": "1 30218U 99025WB  25345.73002885  .00010497  00000+0  40688-2 0  9999", "line2": "2 30218  98.9843  75.0681 0070686 256.9516 256.5111 14.28787588970943"}}, "geometry": {"type": "Point", "coordinates": [-87.59667854234644, 58.01361107352801]}}, {"type": "Feature", "properties": {"norad_id": 30221, "name": "FENGYUN 1C DEB", "group": "fengyun-1c-debris", "lat": 48.398930653428884, "lon": -93.70098651190044, "alt_km": 740.7445850322711, "timestamp": "2025-12-14T07:33:19.752262+00:00", "meta": {"OBJECT_NAME": "FENGYUN 1C DEB", "OBJECT_ID": "1999-025WE", "EPOCH": "2025-12-13T12:41:43.212768", "MEAN_MOTION": 14.45815964, "ECCENTRICITY": 0.0145419, "INCLINATION": 98.9563, "RA_OF_ASC_NODE": 75.2383, "ARG_OF_PERICENTER": 39.0342, "MEAN_ANOMALY": 322.1235, "EPHEMERIS_TYPE": 0, "CLASSIFICATION_TYPE": "U", "NORAD_CAT_ID": 30221, "ELEMENT_SET_NO": 999, "REV_AT_EPOCH": 99412, "BSTAR": 0.00032985313, "MEAN_MOTION_DOT": 1.279e-05, "MEAN_MOTION_DDOT": 0}, "tle": {"line1": "1 30221U 99025WE  25347.52897237  .00001279  00000+0  32985-3 0  9995", "line2": "2 30221  98.9563  75.2383 0145419  39.0342 322.1235 14.45815964994123"}}, "geometry": {"type": "Point", "coordinates": [-93.70098651190044, 48.398930653428884]}}, {"type": "Feature", "properties": {"norad_id": 30222, "name": "FENGYUN 1C DEB", "group": "fengyun-1c-debris", "lat": -48.08867090981115, "lon": -168.32824250418972, "alt_km": 913.0021558605577, "timestamp": "2025-12-14T07:33:19.752272+00:00", "meta": {"OBJECT_NAME": "FENGYUN 1C DEB", "OBJECT_ID": "1999-025WF", "EPOCH": "2025-12-13T13:57:18.539712", "MEAN_MOTION": 14.04074964, "ECCENTRICITY": 0.00379892, "INCLINATION": 98.8414, "RA_OF_ASC_NODE": 20.9439, "ARG_OF_PERICENTER": 34.8473, "MEAN_ANOMALY": 89.2742, "EPHEMERIS_TYPE": 0, "CLASSIFICATION_TYPE": "U", "NORAD_CAT_ID": 30222, "ELEMENT_SET_NO": 999, "REV_AT_EPOCH": 96850, "BSTAR": -8.4221e-07, "MEAN_MOTION_DOT": -4.4e-07, "MEAN_MOTION_DDOT": 0}, "tle": {"line1": "1 30222U 99025WF  25347.58146458 -.00000044  00000+0 -84221-6 0  9998", "line2": "2 30222  98.8414  20.9439 0037989  34.8473  89.2742 14.04074964968506"}}, "geometry": {"type": "Point", "coordinates": [-168.32824250418972, -48.08867090981115]}}]}